H1 CPF 01  gfz 2021 12 05 01  8391 terrasarx 
H2 0702601  6201 31698    2021 12 05 00 59 42 2021 12 10 00 00 42   120 1 1  0 0 0
H9
10 0 59556  59022.000000  0    5289318.694   1827643.903   4008329.422
10 0 59556  59142.000000  0    4807455.323   1461081.975   4703160.310
10 0 59556  59262.000000  0    4235030.901   1078214.499   5315224.937
10 0 59556  59382.000000  0    3581862.704    687237.587   5833786.944
10 0 59556  59502.000000  0    2859313.162    296298.210   6249764.108
10 0 59556  59622.000000  0    2080085.315    -86673.053   6555879.791
10 0 59556  59742.000000  0    1257996.068   -454120.603   6746784.667
10 0 59556  59862.000000  0     407728.231   -799011.697   6819146.164
10 0 59556  59982.000000  0    -455433.367  -1114970.093   6771702.082
10 0 59556  60102.000000  0   -1315876.088  -1396393.575   6605280.544
10 0 59556  60222.000000  0   -2157940.630  -1638553.355   6322785.248
10 0 59556  60342.000000  0   -2966203.663  -1837672.776   5929147.910
10 0 59556  60462.000000  0   -3725761.205  -1990986.521   5431250.561
10 0 59556  60582.000000  0   -4422508.811  -2096779.491   4837811.459
10 0 59556  60702.000000  0   -5043409.484  -2154403.057   4159237.193
10 0 59556  60822.000000  0   -5576744.760  -2164267.725   3407443.351
10 0 59556  60942.000000  0   -6012343.613  -2127812.716   2595647.663
10 0 59556  61062.000000  0   -6341785.686  -2047454.421   1738138.311
10 0 59556  61182.000000  0   -6558574.026  -1926513.863    850017.922
10 0 59556  61302.000000  0   -6658268.077  -1769123.603    -53070.161
10 0 59556  61422.000000  0   -6638576.936  -1580117.086   -955225.803
10 0 59556  61542.000000  0   -6499408.410  -1364903.444  -1840581.620
10 0 59556  61662.000000  0   -6242873.323  -1129331.483  -2693590.002
10 0 59556  61782.000000  0   -5873245.961   -879546.643  -3499301.854
10 0 59556  61902.000000  0   -5396882.164   -621843.594  -4243631.539
10 0 59556  62022.000000  0   -4822097.721   -362518.265  -4913602.366
10 0 59556  62142.000000  0   -4159010.560   -107723.741  -5497568.164
10 0 59556  62262.000000  0   -3419350.917    136666.743  -5985407.823
10 0 59556  62382.000000  0   -2616244.929    365187.219  -6368689.055
10 0 59556  62502.000000  0   -1763977.860    572893.737  -6640802.043
10 0 59556  62622.000000  0    -877739.328    755464.577  -6797062.913
10 0 59556  62742.000000  0      26644.143    909285.781  -6834784.707
10 0 59556  62862.000000  0     932984.337   1031519.371  -6753317.756
10 0 59556  62982.000000  0    1825013.842   1120153.772  -6554062.411
10 0 59556  63102.000000  0    2686672.637   1174036.875  -6240447.928
10 0 59556  63222.000000  0    3502392.620   1192890.142  -5817879.109
10 0 59556  63342.000000  0    4257375.300   1177303.413  -5293651.617
10 0 59556  63462.000000  0    4937860.875   1128710.887  -4676838.085
10 0 59556  63582.000000  0    5531384.379   1049348.784  -3978142.141
10 0 59556  63702.000000  0    6027011.861    942194.705  -3209722.036
10 0 59556  63822.000000  0    6415552.253    810889.702  -2384986.755
10 0 59556  63942.000000  0    6689740.854    659645.033  -1518366.185
10 0 59556  64062.000000  0    6844387.782    493134.765   -625057.625
10 0 59556  64182.000000  0    6876485.817    316376.966    279244.812
10 0 59556  64302.000000  0    6785276.409    134607.280   1178631.815
10 0 59556  64422.000000  0    6572271.527    -46853.823   2057267.158
10 0 59556  64542.000000  0    6241228.813   -222735.194   2899676.265
10 0 59556  64662.000000  0    5798080.588   -387947.944   3691026.948
10 0 59556  64782.000000  0    5250819.546   -537712.633   4417395.558
10 0 59556  64902.000000  0    4609346.719   -667678.253   5066015.435
10 0 59556  65022.000000  0    3885281.053   -774030.804   5625501.945
10 0 59556  65142.000000  0    3091738.812   -853586.843   6086048.514
10 0 59556  65262.000000  0    2243088.275   -903872.115   6439593.625
10 0 59556  65382.000000  0    1354684.607   -923183.186   6679956.241
10 0 59556  65502.000000  0     442587.872   -910631.157   6802939.036
10 0 59556  65622.000000  0    -476729.192   -866166.015   6806395.989
10 0 59556  65742.000000  0   -1386677.855   -790582.146   6690266.350
10 0 59556  65862.000000  0   -2270851.185   -685504.207   6456575.302
10 0 59556  65982.000000  0   -3113318.225   -553353.667   6109401.129
10 0 59556  66102.000000  0   -3898911.759   -397296.541   5654809.970
10 0 59556  66222.000000  0   -4613505.551   -221173.577   5100756.583
10 0 59556  66342.000000  0   -5244275.027    -29413.710   4456950.854
10 0 59556  66462.000000  0   -5779935.688    173067.377   3734691.993
10 0 59556  66582.000000  0   -6210953.906    380981.994   2946672.910
10 0 59556  66702.000000  0   -6529726.867    588796.088   2106758.294
10 0 59556  66822.000000  0   -6730726.410    790862.845   1229737.924
10 0 59556  66942.000000  0   -6810602.882    981560.356    331060.515
10 0 59556  67062.000000  0   -6768245.214   1155430.603   -573446.970
10 0 59556  67182.000000  0   -6604794.642   1307315.793  -1467867.518
10 0 59556  67302.000000  0   -6323613.193   1432488.000  -2336481.854
10 0 59556  67422.000000  0   -5930209.844   1526770.837  -3164051.895
10 0 59556  67542.000000  0   -5432121.944   1586648.006  -3936094.211
10 0 59556  67662.000000  0   -4838757.802   1609356.005  -4639133.893
10 0 59556  67782.000000  0   -4161206.461   1592960.185  -5260935.991
10 0 59556  67902.000000  0   -3412019.471   1536412.178  -5790710.596
10 0 59556  68022.000000  0   -2604971.076   1439587.843  -6219290.078
10 0 59556  68142.000000  0   -1754800.630   1303305.074  -6539277.158
10 0 59556  68262.000000  0    -876941.615   1129322.258  -6745160.654
10 0 59556  68382.000000  0      12755.173    920316.381  -6833399.315
10 0 59556  68502.000000  0     898300.534    679842.743  -6802475.682
10 0 59556  68622.000000  0    1763847.327    412275.691  -6652921.875
10 0 59556  68742.000000  0    2593968.624    122730.837  -6387310.995
10 0 59556  68862.000000  0    3373927.326   -183029.114  -6010217.814
10 0 59556  68982.000000  0    4089935.043   -498704.719  -5528147.115
10 0 59556  69102.000000  0    4729394.952   -817584.104  -4949432.356
10 0 59556  69222.000000  0    5281128.594  -1132680.176  -4284104.006
10 0 59556  69342.000000  0    5735579.335  -1436877.779  -3543725.764
10 0 59556  69462.000000  0    6084988.226  -1723088.036  -2741201.893
10 0 59556  69582.000000  0    6323538.323  -1984406.941  -1890557.527
10 0 59556  69702.000000  0    6447463.069  -2214274.339  -1006694.892
10 0 59556  69822.000000  0    6455115.546  -2406628.839   -105130.303
10 0 59556  69942.000000  0    6346996.435  -2556055.434    798283.501
10 0 59556  70062.000000  0    6125738.986  -2657921.100   1687644.092
10 0 59556  70182.000000  0    5796050.214  -2708495.273   2547288.777
10 0 59556  70302.000000  0    5364610.138  -2705052.024   3362078.968
10 0 59556  70422.000000  0    4839931.074  -2645950.254   4117674.044
10 0 59556  70542.000000  0    4232182.872  -2530690.579   4800786.484
10 0 59556  70662.000000  0    3552989.274  -2359949.290   5399417.796
10 0 59556  70782.000000  0    2815196.032  -2135587.029   5903068.610
10 0 59556  70902.000000  0    2032620.613  -1860631.839   6302917.948
10 0 59556  71022.000000  0    1219788.365  -1539238.728   6591972.044
10 0 59556  71142.000000  0     391659.449  -1176626.048   6765180.790
10 0 59556  71262.000000  0    -436647.917   -778989.436   6819520.168
10 0 59556  71382.000000  0   -1250132.679   -353395.328   6754040.833
10 0 59556  71502.000000  0   -2034181.211     92344.261   6569883.588
10 0 59556  71622.000000  0   -2774828.706    549814.570   6270261.050
10 0 59556  71742.000000  0   -3459008.168   1010155.868   5860405.781
10 0 59556  71862.000000  0   -4074783.587   1464233.705   5347485.168
10 0 59556  71982.000000  0   -4611563.708   1902819.090   4740482.622
10 0 59556  72102.000000  0   -5060291.405   2316775.854   4050045.366
10 0 59556  72222.000000  0   -5413604.017   2697251.034   3288300.997
10 0 59556  72342.000000  0   -5665961.431   3035863.528   2468646.063
10 0 59556  72462.000000  0   -5813740.043   3324887.617   1605509.957
10 0 59556  72582.000000  0   -5855289.606   3557427.263    714096.185
10 0 59556  72702.000000  0   -5790948.553   3727574.854   -189893.268
10 0 59556  72822.000000  0   -5623019.694   3830550.753  -1090542.685
10 0 59556  72942.000000  0   -5355706.840   3862821.281  -1972011.896
10 0 59556  73062.000000  0   -4995011.884   3822190.564  -2818824.560
10 0 59556  73182.000000  0   -4548596.048   3707864.141  -3616145.772
10 0 59556  73302.000000  0   -4025609.922   3520483.184  -4350044.077
10 0 59556  73422.000000  0   -3436498.453   3262129.941  -5007732.477
10 0 59556  73542.000000  0   -2792785.174   2936304.248  -5577784.583
10 0 59556  73662.000000  0   -2106843.146   2547873.449  -6050324.132
10 0 59556  73782.000000  0   -1391653.858   2102995.780  -6417186.456
10 0 59556  73902.000000  0    -660561.171   1609019.071  -6672047.119
10 0 59556  74022.000000  0      72974.408   1074358.411  -6810520.174
10 0 59556  74142.000000  0     795617.700    508353.905  -6830225.100
10 0 59556  74262.000000  0    1494395.827    -78889.129  -6730825.049
10 0 59556  74382.000000  0    2156926.411   -676677.001  -6514030.793
10 0 59556  74502.000000  0    2771631.638  -1273917.148  -6183574.357
10 0 59556  74622.000000  0    3327938.105  -1859318.777  -5745151.428
10 0 59556  74742.000000  0    3816458.454  -2421601.424  -5206334.066
10 0 59556  74862.000000  0    4229154.104  -2949711.205  -4576451.341
10 0 59556  74982.000000  0    4559471.929  -3433038.238  -3866437.466
10 0 59556  75102.000000  0    4802454.483  -3861630.425  -3088651.935
10 0 59556  75222.000000  0    4954822.269  -4226400.972  -2256671.678
10 0 59556  75342.000000  0    5015023.839  -4519323.708  -1385057.109
10 0 59556  75462.000000  0    4983252.460  -4733611.960   -489096.844
99
